[{"OBJECT_NAME":"KINEIS-5E","OBJECT_ID":"2024-219C","EPOCH":"2026-03-06T06:49:47.070912","MEAN_MOTION":14.7232933,"ECCENTRICITY":0.00030438,"INCLINATION":97.9609,"RA_OF_ASC_NODE":226.9811,"ARG_OF_PERICENTER":138.6812,"MEAN_ANOMALY":221.4626,"EPHEMERIS_TYPE":0,"CLASSIFICATION_TYPE":"U","NORAD_CAT_ID":62083,"ELEMENT_SET_NO":999,"REV_AT_EPOCH":6862,"BSTAR":0.00037017737,"MEAN_MOTION_DOT":2.292e-5,"MEAN_MOTION_DDOT":0},{"OBJECT_NAME":"KINEIS-5A","OBJECT_ID":"2024-219D","EPOCH":"2026-03-06T05:57:39.650112","MEAN_MOTION":14.72175737,"ECCENTRICITY":0.00016499,"INCLINATION":97.9775,"RA_OF_ASC_NODE":227.0466,"ARG_OF_PERICENTER":213.9866,"MEAN_ANOMALY":146.1236,"EPHEMERIS_TYPE":0,"CLASSIFICATION_TYPE":"U","NORAD_CAT_ID":62084,"ELEMENT_SET_NO":999,"REV_AT_EPOCH":6862,"BSTAR":0.00016978151,"MEAN_MOTION_DOT":1.021e-5,"MEAN_MOTION_DDOT":0},{"OBJECT_NAME":"KINEIS-5B","OBJECT_ID":"2024-219E","EPOCH":"2026-03-06T07:02:44.193984","MEAN_MOTION":14.78056922,"ECCENTRICITY":0.00012707,"INCLINATION":97.9938,"RA_OF_ASC_NODE":229.8028,"ARG_OF_PERICENTER":203.5392,"MEAN_ANOMALY":156.5761,"EPHEMERIS_TYPE":0,"CLASSIFICATION_TYPE":"U","NORAD_CAT_ID":62085,"ELEMENT_SET_NO":999,"REV_AT_EPOCH":6880,"BSTAR":0.00034842676,"MEAN_MOTION_DOT":2.466e-5,"MEAN_MOTION_DDOT":0},{"OBJECT_NAME":"KINEIS-2C","OBJECT_ID":"2025-028B","EPOCH":"2026-03-06T01:22:27.825600","MEAN_MOTION":14.72302687,"ECCENTRICITY":0.00011992,"INCLINATION":98.0281,"RA_OF_ASC_NODE":120.2694,"ARG_OF_PERICENTER":38.5163,"MEAN_ANOMALY":321.613,"EPHEMERIS_TYPE":0,"CLASSIFICATION_TYPE":"U","NORAD_CAT_ID":62929,"ELEMENT_SET_NO":999,"REV_AT_EPOCH":5743,"BSTAR":0.00024246654,"MEAN_MOTION_DOT":1.483e-5,"MEAN_MOTION_DDOT":0},{"OBJECT_NAME":"KINEIS-2D","OBJECT_ID":"2025-028C","EPOCH":"2026-03-06T04:16:47.451936","MEAN_MOTION":14.75326777,"ECCENTRICITY":0.00038863,"INCLINATION":97.9413,"RA_OF_ASC_NODE":119.573,"ARG_OF_PERICENTER":154.9793,"MEAN_ANOMALY":205.1606,"EPHEMERIS_TYPE":0,"CLASSIFICATION_TYPE":"U","NORAD_CAT_ID":62930,"ELEMENT_SET_NO":999,"REV_AT_EPOCH":5752,"BSTAR":0.00036009398,"MEAN_MOTION_DOT":2.391e-5,"MEAN_MOTION_DDOT":0},{"OBJECT_NAME":"KINEIS-2E","OBJECT_ID":"2025-028D","EPOCH":"2026-03-06T02:32:51.438624","MEAN_MOTION":14.76700068,"ECCENTRICITY":0.00018633,"INCLINATION":97.9088,"RA_OF_ASC_NODE":118.8948,"ARG_OF_PERICENTER":113.5292,"MEAN_ANOMALY":246.6114,"EPHEMERIS_TYPE":0,"CLASSIFICATION_TYPE":"U","NORAD_CAT_ID":62931,"ELEMENT_SET_NO":999,"REV_AT_EPOCH":5756,"BSTAR":0.00025154761,"MEAN_MOTION_DOT":1.71e-5,"MEAN_MOTION_DDOT":0},{"OBJECT_NAME":"KINEIS-2A","OBJECT_ID":"2025-028E","EPOCH":"2026-03-06T03:40:32.175552","MEAN_MOTION":14.72087591,"ECCENTRICITY":0.00034356,"INCLINATION":98.0729,"RA_OF_ASC_NODE":120.6825,"ARG_OF_PERICENTER":204.7258,"MEAN_ANOMALY":155.3785,"EPHEMERIS_TYPE":0,"CLASSIFICATION_TYPE":"U","NORAD_CAT_ID":62932,"ELEMENT_SET_NO":999,"REV_AT_EPOCH":5744,"BSTAR":0.00022055505,"MEAN_MOTION_DOT":1.337e-5,"MEAN_MOTION_DDOT":0},{"OBJECT_NAME":"KINEIS-2B","OBJECT_ID":"2025-028G","EPOCH":"2026-03-06T02:35:54.584160","MEAN_MOTION":14.73101344,"ECCENTRICITY":0.00048681,"INCLINATION":97.98,"RA_OF_ASC_NODE":119.8003,"ARG_OF_PERICENTER":117.0918,"MEAN_ANOMALY":243.0787,"EPHEMERIS_TYPE":0,"CLASSIFICATION_TYPE":"U","NORAD_CAT_ID":62934,"ELEMENT_SET_NO":999,"REV_AT_EPOCH":5748,"BSTAR":0.00025230282,"MEAN_MOTION_DOT":1.575e-5,"MEAN_MOTION_DDOT":0},{"OBJECT_NAME":"KINEIS-4E","OBJECT_ID":"2025-056A","EPOCH":"2026-03-06T06:55:09.566688","MEAN_MOTION":14.72346368,"ECCENTRICITY":7.481e-5,"INCLINATION":97.9937,"RA_OF_ASC_NODE":191.6521,"ARG_OF_PERICENTER":186.1001,"MEAN_ANOMALY":174.0198,"EPHEMERIS_TYPE":0,"CLASSIFICATION_TYPE":"U","NORAD_CAT_ID":63300,"ELEMENT_SET_NO":999,"REV_AT_EPOCH":5198,"BSTAR":0.00050724494,"MEAN_MOTION_DOT":3.161e-5,"MEAN_MOTION_DDOT":0},{"OBJECT_NAME":"KINEIS-4C","OBJECT_ID":"2025-056B","EPOCH":"2026-03-05T21:25:51.278304","MEAN_MOTION":14.72336552,"ECCENTRICITY":3.554e-5,"INCLINATION":97.9972,"RA_OF_ASC_NODE":191.4275,"ARG_OF_PERICENTER":67.1158,"MEAN_ANOMALY":293.0087,"EPHEMERIS_TYPE":0,"CLASSIFICATION_TYPE":"U","NORAD_CAT_ID":63301,"ELEMENT_SET_NO":999,"REV_AT_EPOCH":5193,"BSTAR":0.00050581047,"MEAN_MOTION_DOT":3.151e-5,"MEAN_MOTION_DDOT":0},{"OBJECT_NAME":"KINEIS-4D","OBJECT_ID":"2025-056C","EPOCH":"2026-03-06T05:42:26.633664","MEAN_MOTION":14.72321809,"ECCENTRICITY":5.074e-5,"INCLINATION":97.9949,"RA_OF_ASC_NODE":191.7445,"ARG_OF_PERICENTER":311.1621,"MEAN_ANOMALY":48.9542,"EPHEMERIS_TYPE":0,"CLASSIFICATION_TYPE":"U","NORAD_CAT_ID":63302,"ELEMENT_SET_NO":999,"REV_AT_EPOCH":5198,"BSTAR":0.00045357903,"MEAN_MOTION_DOT":2.819e-5,"MEAN_MOTION_DDOT":0},{"OBJECT_NAME":"KINEIS-4A","OBJECT_ID":"2025-056D","EPOCH":"2026-03-05T22:20:55.996224","MEAN_MOTION":14.72296229,"ECCENTRICITY":0.00016399,"INCLINATION":97.9935,"RA_OF_ASC_NODE":191.3695,"ARG_OF_PERICENTER":259.3732,"MEAN_ANOMALY":100.7291,"EPHEMERIS_TYPE":0,"CLASSIFICATION_TYPE":"U","NORAD_CAT_ID":63303,"ELEMENT_SET_NO":999,"REV_AT_EPOCH":5193,"BSTAR":-0.00014085258,"MEAN_MOTION_DOT":-9.39e-6,"MEAN_MOTION_DDOT":0},{"OBJECT_NAME":"KINEIS-4B","OBJECT_ID":"2025-056E","EPOCH":"2026-03-06T07:43:45.922656","MEAN_MOTION":14.72287404,"ECCENTRICITY":0.00022601,"INCLINATION":97.9936,"RA_OF_ASC_NODE":191.7994,"ARG_OF_PERICENTER":200.2674,"MEAN_ANOMALY":159.8444,"EPHEMERIS_TYPE":0,"CLASSIFICATION_TYPE":"U","NORAD_CAT_ID":63304,"ELEMENT_SET_NO":999,"REV_AT_EPOCH":5198,"BSTAR":0.00047805722,"MEAN_MOTION_DOT":2.972e-5,"MEAN_MOTION_DDOT":0}]
