KINEIS-5E               
1 62083U 24219C   26065.28457258  .00002292  00000+0  37018-3 0  9993
2 62083  97.9609 226.9811 0003043 138.6812 221.4626 14.72329330 68628
KINEIS-5A               
1 62084U 24219D   26065.24837558  .00001021  00000+0  16978-3 0  9996
2 62084  97.9775 227.0466 0001649 213.9866 146.1236 14.72175737 68627
KINEIS-5B               
1 62085U 24219E   26065.29356706  .00002466  00000+0  34843-3 0  9998
2 62085  97.9938 229.8028 0001270 203.5392 156.5761 14.78056922 68800
KINEIS-2C               
1 62929U 25028B   26065.05726650  .00001483  00000+0  24247-3 0  9992
2 62929  98.0281 120.2694 0001199  38.5163 321.6130 14.72302687 57433
KINEIS-2D               
1 62930U 25028C   26065.17832699  .00002391  00000+0  36009-3 0  9996
2 62930  97.9413 119.5730 0003886 154.9793 205.1606 14.75326777 57522
KINEIS-2E               
1 62931U 25028D   26065.10615091  .00001710  00000+0  25155-3 0  9999
2 62931  97.9088 118.8948 0001863 113.5292 246.6114 14.76700068 57560
KINEIS-2A               
1 62932U 25028E   26065.15315018  .00001337  00000+0  22056-3 0  9993
2 62932  98.0729 120.6825 0003435 204.7258 155.3785 14.72087591 57444
KINEIS-2B               
1 62934U 25028G   26065.10827065  .00001575  00000+0  25230-3 0  9991
2 62934  97.9800 119.8003 0004868 117.0918 243.0787 14.73101344 57487
KINEIS-4E               
1 63300U 25056A   26065.28830517  .00003161  00000+0  50724-3 0  9994
2 63300  97.9937 191.6521 0000748 186.1001 174.0198 14.72346368 51986
KINEIS-4C               
1 63301U 25056B   26064.89295461  .00003151  00000+0  50581-3 0  9994
2 63301  97.9972 191.4275 0000355  67.1158 293.0087 14.72336552 51933
KINEIS-4D               
1 63302U 25056C   26065.23780826  .00002819  00000+0  45358-3 0  9994
2 63302  97.9949 191.7445 0000507 311.1621  48.9542 14.72321809 51983
KINEIS-4A               
1 63303U 25056D   26064.93120366 -.00000939  00000+0 -14085-3 0  9994
2 63303  97.9935 191.3695 0001639 259.3732 100.7291 14.72296229 51935
KINEIS-4B               
1 63304U 25056E   26065.32205929  .00002972  00000+0  47806-3 0  9992
2 63304  97.9936 191.7994 0002260 200.2674 159.8444 14.72287404 51989
